[{"OBJECT_NAME":"ONEWEB-0680","OBJECT_ID":"2023-068G","EPOCH":"2026-03-09T22:25:32.549664","MEAN_MOTION":13.21826748,"ECCENTRICITY":0.00017231,"INCLINATION":87.9175,"RA_OF_ASC_NODE":263.7546,"ARG_OF_PERICENTER":72.6675,"MEAN_ANOMALY":287.4647,"EPHEMERIS_TYPE":0,"CLASSIFICATION_TYPE":"U","NORAD_CAT_ID":56716,"ELEMENT_SET_NO":999,"REV_AT_EPOCH":13798,"BSTAR":4.3346706e-5,"MEAN_MOTION_DOT":3.1e-7,"MEAN_MOTION_DDOT":0},{"OBJECT_NAME":"COSMOS 839 DEB","OBJECT_ID":"1976-067BM","EPOCH":"2026-03-09T06:47:38.459328","MEAN_MOTION":12.37297889,"ECCENTRICITY":0.07795846,"INCLINATION":65.7333,"RA_OF_ASC_NODE":22.8254,"ARG_OF_PERICENTER":323.0912,"MEAN_ANOMALY":189.4156,"EPHEMERIS_TYPE":0,"CLASSIFICATION_TYPE":"U","NORAD_CAT_ID":18428,"ELEMENT_SET_NO":999,"REV_AT_EPOCH":59048,"BSTAR":0.0034722936,"MEAN_MOTION_DOT":1.224e-5,"MEAN_MOTION_DDOT":0}]
